{
    "links": {
        "self": "http://www.neowsapp.com/rest/v1/neo/3825002?api_key=iIulBulltgU6a56xZRHN4H3l9WmuAYTsLGpBGhQ2"
    },
    "id": "3825002",
    "neo_reference_id": "3825002",
    "name": "(2018 KN1)",
    "designation": "2018 KN1",
    "nasa_jpl_url": "http://ssd.jpl.nasa.gov/sbdb.cgi?sstr=3825002",
    "absolute_magnitude_h": 23.3,
    "estimated_diameter": {
        "kilometers": {
            "estimated_diameter_min": 0.058150704,
            "estimated_diameter_max": 0.130028927
        },
        "meters": {
            "estimated_diameter_min": 58.1507039646,
            "estimated_diameter_max": 130.0289270043
        },
        "miles": {
            "estimated_diameter_min": 0.0361331611,
            "estimated_diameter_max": 0.0807962044
        },
        "feet": {
            "estimated_diameter_min": 190.7831555951,
            "estimated_diameter_max": 426.6041048727
        }
    },
    "is_potentially_hazardous_asteroid": false,
    "close_approach_data": [
        {
            "close_approach_date": "2018-04-27",
            "close_approach_date_full": "2018-Apr-27 09:08",
            "epoch_date_close_approach": 1524820080000,
            "relative_velocity": {
                "kilometers_per_second": "4.3570237002",
                "kilometers_per_hour": "15685.2853205932",
                "miles_per_hour": "9746.2263148986"
            },
            "miss_distance": {
                "astronomical": "0.205305141",
                "lunar": "79.863699849",
                "kilometers": "30713211.79364967",
                "miles": "19084304.857598646"
            },
            "orbiting_body": "Earth"
        }
    ],
    "orbital_data": {
        "orbit_id": "4",
        "orbit_determination_date": "2018-06-05 07:03:15",
        "first_observation_date": "2018-05-19",
        "last_observation_date": "2018-06-04",
        "data_arc_in_days": 16,
        "observations_used": 32,
        "orbit_uncertainty": "7",
        "minimum_orbit_intersection": ".205134",
        "jupiter_tisserand_invariant": "4.114",
        "epoch_osculation": "2459000.5",
        "eccentricity": ".3021475314535195",
        "semi_major_axis": "1.717573228796648",
        "inclination": "8.194738333069338",
        "ascending_node_longitude": "236.0182543545653",
        "orbital_period": "822.1883529337213",
        "perihelion_distance": "1.19861271762509",
        "perihelion_argument": "328.1707946255591",
        "aphelion_distance": "2.236533739968206",
        "perihelion_time": "2459042.923585413370",
        "mean_anomaly": "341.4245839237223",
        "mean_motion": ".437855874162475",
        "equinox": "J2000",
        "orbit_class": {
            "orbit_class_type": "AMO",
            "orbit_class_description": "Near-Earth asteroid orbits similar to that of 1221 Amor",
            "orbit_class_range": "1.017 AU < q (perihelion) < 1.3 AU"
        }
    },
    "is_sentry_object": false
}